SL-8 R/B                
1 15483U 85006B   26198.30339663  .00000117  00000+0  47404-4 0  9990
2 15483  74.0454  22.6411 0019258 265.3637 268.9670 14.37846005172657
SL-12 R/B(2)            
1 15772U 85042D   26197.98729870  .00000056  00000+0  46661-4 0  9993
2 15772  71.1066 174.5552 0037358 283.5616 132.8935 14.22011118132773
SL-14 R/B               
1 15945U 85069B   26198.12335908  .00000219  00000+0  21850-4 0  9990
2 15945  82.5260 263.2129 0020140 121.2887 239.0306 14.86535914192067
SL-16 R/B               
1 16182U 85097B   26198.05799457  .00000224  00000+0  13610-3 0  9990
2 16182  71.0006 228.1908 0005728  47.9606 333.0176 14.16613647105556
SL-14 R/B               
1 16496U 86006B   26198.26620059  .00000235  00000+0  22058-4 0  9992
2 16496  82.5283 137.8090 0075640 201.9347 157.8628 14.86969203168462
COSMOS 1743             
1 16719U 86034A   26198.26161071  .00036795  00000+0  30811-3 0  9990
2 16719  82.5274 296.6896 0005467 170.3376 189.7992 15.69781946200507
SL-14 R/B               
1 16792U 86046B   26198.25875676  .00000240  00000+0  24671-4 0  9990
2 16792  82.4840 317.7611 0023700 156.3380 203.8932 14.85691426145640
SL-14 R/B               
1 16882U 86055B   26197.57786184  .00000195  00000+0  19667-4 0  9997
2 16882  82.5204   5.4962 0017312 265.2753 163.3331 14.85740804138506
AJISAI (EGS)            
1 16908U 86061A   26198.32601682 -.00000095  00000+0  15083-4 0  9994
2 16908  50.0103  54.7194 0011079 257.3511 150.4172 12.44516662484145
SL-14 R/B               
1 17567U 87024B   26198.31238216  .00000238  00000+0  24270-4 0  9990
2 17567  82.5299 330.9341 0018006 186.6367 173.4614 14.86232593107386
COSMOS 1833             
1 17589U 87027A   26197.98133915  .00000055  00000+0  54860-4 0  9994
2 17589  70.9212  54.2460 0024360   5.8354 354.3046 14.13067061 28581
SL-16 R/B               
1 17590U 87027B   26197.86144629  .00000177  00000+0  11158-3 0  9994
2 17590  71.0034   4.2944 0007147 279.9413  80.0904 14.17173992 33647
SL-14 R/B               
1 17912U 87038B   26197.96994360  .00000197  00000+0  19871-4 0  9993
2 17912  82.5014 175.0183 0020867  96.7699 263.5893 14.85462122 98420
COSMOS 1844             
1 17973U 87041A   26198.23113963  .00000030  00000+0  40837-4 0  9999
2 17973  70.8998 120.9356 0031199 192.3719 167.6640 14.14581146 21908
SL-14 R/B               
1 18153U 87055B   26198.05868101  .00000173  00000+0  17100-4 0  9991
2 18153  82.4969 227.0682 0019310 308.5770  51.3715 14.85727660 89149
COSMOS 1867             
1 18187U 87060A   26198.24325535 -.00000066  00000+0  12807-4 0  9995
2 18187  65.0118 303.8844 0017206 282.0014  77.9142 14.31518644 38481
SL-14 R/B               
1 18749U 88001B   26198.06282871  .00000200  00000+0  20237-4 0  9995
2 18749  82.5118  73.6652 0018318 165.7253 194.4485 14.85627385 61231
COSMOS 1933             
1 18958U 88020A   26198.21193723  .00001971  00000+0  92984-4 0  9996
2 18958  82.5141 122.7007 0005877 102.3809 257.8083 15.18896604 69885
SL-3 R/B                
1 19046U 88032B   26198.24366086  .00002081  00000+0  96108-4 0  9990
2 19046  97.5277 181.2611 0026689 138.8359 221.4896 15.21040242 71794
SL-16 R/B               
1 19120U 88039B   26198.27862757  .00000065  00000+0  53359-4 0  9990
2 19120  71.0141 154.5294 0020510 146.0379 214.2064 14.19631180976776
COSMOS 1953             
1 19210U 88050A   26197.96921246  .00003575  00000+0  12045-3 0  9992
2 19210  82.5062  27.9888 0011348  34.3665 325.8308 15.30350691 57547
SL-8 R/B                
1 19257U 88053B   26197.56228509  .00000116  00000+0  45896-4 0  9993
2 19257  74.0456 234.9088 0019784  20.0654  91.9568 14.38978716995131
COSMOS 1975             
1 19573U 88093A   26197.85610404  .00003494  00000+0  12010-3 0  9992
2 19573  82.5203 347.8474 0012460  77.3903 282.8729 15.29673879 39148
SL-14 R/B               
1 19574U 88093B   26198.23604032  .00000196  00000+0  19700-4 0  9996
2 19574  82.5315 280.4362 0019838 333.3403  53.7751 14.85760754 20259
SL-16 R/B               
1 19650U 88102B   26198.09545688 -.00000004  00000+0  22166-4 0  9996
2 19650  70.9975 239.2086 0014199 182.5220 177.5834 14.16166627945210
INTERCOSMOS 24          
1 20261U 89080A   26197.95717615  .00000107  00000+0  27746-4 0  9999
2 20261  82.6051  20.2670 1187089 352.8561   5.6820 12.59692444683077
SL-14 R/B               
1 20262U 89080C   26197.68266631  .00000068  00000+0  19496-4 0  9996
2 20262  82.5932  90.3563 1228754 249.8872  96.6072 12.50578679676276
DELTA 1 R/B             
1 20323U 89089B   26198.22224451  .00000113  00000+0  36445-4 0  9992
2 20323  97.0636  24.9741 0070614  73.7157 287.1794 14.50748455914519
ARIANE 40 R/B           
1 20443U 90005H   26197.71607209  .00000093  00000+0  42922-4 0  9998
2 20443  98.2944 254.4115 0010372 169.5230 190.6176 14.39941114911370
DELTA 2 R/B(1)          
1 20453U 90008B   26197.73425519  .00085639  00000+0  51898-3 0  9996
2 20453  35.5996  37.2583 0058208  30.6255 329.7865 15.73853612946353
